[{"OBJECT_NAME":"ONEWEB-0317","OBJECT_ID":"2021-075AE","EPOCH":"2026-03-09T20:59:49.038432","MEAN_MOTION":13.12444063,"ECCENTRICITY":0.0002426,"INCLINATION":87.9005,"RA_OF_ASC_NODE":10.376,"ARG_OF_PERICENTER":91.0608,"MEAN_ANOMALY":269.0798,"EPHEMERIS_TYPE":0,"CLASSIFICATION_TYPE":"U","NORAD_CAT_ID":49103,"ELEMENT_SET_NO":999,"REV_AT_EPOCH":22216,"BSTAR":-0.00039740904,"MEAN_MOTION_DOT":-1.3e-6,"MEAN_MOTION_DDOT":0},{"OBJECT_NAME":"SL-14 DEB","OBJECT_ID":"1991-056BD","EPOCH":"2026-03-09T19:16:38.934624","MEAN_MOTION":13.15511547,"ECCENTRICITY":0.0026402,"INCLINATION":82.5605,"RA_OF_ASC_NODE":217.0374,"ARG_OF_PERICENTER":87.5299,"MEAN_ANOMALY":272.8845,"EPHEMERIS_TYPE":0,"CLASSIFICATION_TYPE":"U","NORAD_CAT_ID":45315,"ELEMENT_SET_NO":999,"REV_AT_EPOCH":28954,"BSTAR":0.00066652509,"MEAN_MOTION_DOT":2.64e-6,"MEAN_MOTION_DDOT":0}]
